STARLINK-1007
1 44713U 19074A   25179.58333333  .00001234  00000+0  12345-4 0  9990
2 44713  53.0550 180.0000 0001500 270.0000  90.0000 15.05500000123456
---
STARLINK-1008
1 44714U 19074B   25179.58333333  .00001235  00000+0  12346-4 0  9991
2 44714  53.0550 180.0500 0001501 270.1000  90.0500 15.05500000123457
---
STARLINK-1009
1 44715U 19074C   25179.58333333  .00001236  00000+0  12347-4 0  9992
2 44715  53.0550 180.1000 0001502 270.2000  90.1000 15.05500000123458
---
STARLINK-1010
1 44716U 19074D   25179.58333333  .00001237  00000+0  12348-4 0  9993
2 44716  53.0550 180.1500 0001503 270.3000  90.1500 15.05500000123459
